QIANFAN-49              
1 62250U 24232P   25251.88941250  .00000030  00000+0  28058-4 0  9999
2 62250  88.9959  50.8008 0016071 107.6137 252.6771 13.50959296 55038
QIANFAN-50              
1 62251U 24232Q   25251.91414311  .00000038  00000+0  39655-4 0  9990
2 62251  88.9965  50.8012 0017719 108.9500 251.3573 13.50965863 55065
QIANFAN-51              
1 62252U 24232R   25251.89767395  .00000025  00000+0  20182-4 0  9992
2 62252  88.9958  50.8026 0015177 111.9041 248.3726 13.50968332 55052
QIANFAN-52              
1 62253U 24232S   25251.92650904  .00000063  00000+0  78612-4 0  9997
2 62253  88.9955  50.6768 0017257 105.2422 255.0638 13.50970778 55145
QIANFAN-53              
1 62254U 24232T   25251.90590746  .00000029  00000+0  25543-4 0  9990
2 62254  88.9962  50.7764 0016119 106.1757 254.1170 13.50966781 55104
QIANFAN-54              
1 62255U 24232U   25251.94702893  .00000021  00000+0  13504-4 0  9999
2 62255  88.9954  50.4588 0003587 123.4141 236.7354 13.50968777 86618
QIANFAN-55              
1 62785U 25016A   25251.89880992  .00000098  00000+0  13279-3 0  9991
2 62785  88.9787 113.0074 0015465 263.3342  96.6049 13.50963710 34384
QIANFAN-56              
1 62786U 25016B   25251.91543246  .00000089  00000+0  11941-3 0  9997
2 62786  88.9759 112.8680 0014131 266.0763  93.8772 13.50962782 34436
